[{"OBJECT_NAME":"ALSAT-3A","OBJECT_ID":"2026-009A","EPOCH":"2026-03-09T22:30:09.645696","MEAN_MOTION":15.23911932,"ECCENTRICITY":0.00134314,"INCLINATION":97.4617,"RA_OF_ASC_NODE":143.4537,"ARG_OF_PERICENTER":76.5175,"MEAN_ANOMALY":283.7557,"EPHEMERIS_TYPE":0,"CLASSIFICATION_TYPE":"U","NORAD_CAT_ID":67474,"ELEMENT_SET_NO":999,"REV_AT_EPOCH":816,"BSTAR":0.00035948927,"MEAN_MOTION_DOT":8.636e-5,"MEAN_MOTION_DDOT":0},{"OBJECT_NAME":"NOAA 16 DEB","OBJECT_ID":"2000-055FH","EPOCH":"2026-03-09T12:30:03.934368","MEAN_MOTION":15.16827851,"ECCENTRICITY":0.00080503,"INCLINATION":98.9144,"RA_OF_ASC_NODE":269.3218,"ARG_OF_PERICENTER":278.4203,"MEAN_ANOMALY":81.6113,"EPHEMERIS_TYPE":0,"CLASSIFICATION_TYPE":"U","NORAD_CAT_ID":41257,"ELEMENT_SET_NO":999,"REV_AT_EPOCH":52995,"BSTAR":0.010284054,"MEAN_MOTION_DOT":0.00208024,"MEAN_MOTION_DDOT":0}]
